{"type": "FeatureCollection", "features": [{"type": "Feature", "properties": {"norad_id": 66454, "name": "VIASAT-3 F2", "group": "last-30-days", "lat": 3.7752965228502418, "lon": 67.97700016807747, "alt_km": 15014.798606136246, "timestamp": "2025-12-14T07:33:18.185458+00:00", "meta": {"OBJECT_NAME": "VIASAT-3 F2", "OBJECT_ID": "2025-261A", "EPOCH": "2025-12-12T22:24:17.478432", "MEAN_MOTION": 2.09869596, "ECCENTRICITY": 0.2249784, "INCLINATION": 5.3891, "RA_OF_ASC_NODE": 292.3457, "ARG_OF_PERICENTER": 185.8732, "MEAN_ANOMALY": 3.755, "EPHEMERIS_TYPE": 0, "CLASSIFICATION_TYPE": "U", "NORAD_CAT_ID": 66454, "ELEMENT_SET_NO": 999, "REV_AT_EPOCH": 64, "BSTAR": 0, "MEAN_MOTION_DOT": -8.1e-07, "MEAN_MOTION_DDOT": 0}, "tle": {"line1": "1 66454U 25261A   25346.93353563 -.00000081  00000+0  00000+0 0  9996", "line2": "2 66454   5.3891 292.3457 2249784 185.8732   3.7550  2.09869596   649"}}, "geometry": {"type": "Point", "coordinates": [67.97700016807747, 3.7752965228502418]}}, {"type": "Feature", "properties": {"norad_id": 66455, "name": "ATLAS 5 CENTAUR R/B", "group": "last-30-days", "lat": -0.5540850757927102, "lon": 116.63871948528771, "alt_km": 12311.71708954818, "timestamp": "2025-12-14T07:33:18.185525+00:00", "meta": {"OBJECT_NAME": "ATLAS 5 CENTAUR R/B", "OBJECT_ID": "2025-261B", "EPOCH": "2025-12-13T05:33:47.101824", "MEAN_MOTION": 2.28260007, "ECCENTRICITY": 0.23294381, "INCLINATION": 6.1451, "RA_OF_ASC_NODE": 291.5668, "ARG_OF_PERICENTER": 186.583, "MEAN_ANOMALY": 189.0602, "EPHEMERIS_TYPE": 0, "CLASSIFICATION_TYPE": "U", "NORAD_CAT_ID": 66455, "ELEMENT_SET_NO": 999, "REV_AT_EPOCH": 66, "BSTAR": 0, "MEAN_MOTION_DOT": -7.4e-07, "MEAN_MOTION_DDOT": 0}, "tle": {"line1": "1 66455U 25261B   25347.23179516 -.00000074  00000+0  00000+0 0  9997", "line2": "2 66455   6.1451 291.5668 2329438 186.5830 189.0602  2.28260007   669"}}, "geometry": {"type": "Point", "coordinates": [116.63871948528771, -0.5540850757927102]}}, {"type": "Feature", "properties": {"norad_id": 66456, "name": "STARLINK-35643", "group": "last-30-days", "lat": -41.77358502006652, "lon": -44.02193768402378, "alt_km": 446.0400954259894, "timestamp": "2025-12-14T07:33:18.185544+00:00", "meta": {"OBJECT_NAME": "STARLINK-35643", "OBJECT_ID": "2025-262A", "EPOCH": "2025-12-13T14:52:59.368512", "MEAN_MOTION": 15.40714003, "ECCENTRICITY": 0.00017966, "INCLINATION": 43.0021, "RA_OF_ASC_NODE": 66.5409, "ARG_OF_PERICENTER": 279.4358, "MEAN_ANOMALY": 80.6295, "EPHEMERIS_TYPE": 0, "CLASSIFICATION_TYPE": "U", "NORAD_CAT_ID": 66456, "ELEMENT_SET_NO": 999, "REV_AT_EPOCH": 569, "BSTAR": 0.0011179917, "MEAN_MOTION_DOT": 0.00046706, "MEAN_MOTION_DDOT": 0}, "tle": {"line1": "1 66456U 25262A   25347.62013158  .00046706  00000+0  11180-2 0  9996", "line2": "2 66456  43.0021  66.5409 0001796 279.4358  80.6295 15.40714003  5695"}}, "geometry": {"type": "Point", "coordinates": [-44.02193768402378, -41.77358502006652]}}, {"type": "Feature", "properties": {"norad_id": 66457, "name": "STARLINK-35466", "group": "last-30-days", "lat": -41.70393755491876, "lon": -10.49963111396231, "alt_km": 445.9348712551582, "timestamp": "2025-12-14T07:33:18.185558+00:00", "meta": {"OBJECT_NAME": "STARLINK-35466", "OBJECT_ID": "2025-262B", "EPOCH": "2025-12-13T14:46:32.081376", "MEAN_MOTION": 15.40720102, "ECCENTRICITY": 0.00020791, "INCLINATION": 43.0026, "RA_OF_ASC_NODE": 66.5038, "ARG_OF_PERICENTER": 242.9232, "MEAN_ANOMALY": 117.1413, "EPHEMERIS_TYPE": 0, "CLASSIFICATION_TYPE": "U", "NORAD_CAT_ID": 66457, "ELEMENT_SET_NO": 999, "REV_AT_EPOCH": 569, "BSTAR": 0.0012351534, "MEAN_MOTION_DOT": 0.00051678, "MEAN_MOTION_DDOT": 0}, "tle": {"line1": "1 66457U 25262B   25347.61564909  .00051678  00000+0  12352-2 0  9997", "line2": "2 66457  43.0026  66.5038 0002079 242.9232 117.1413 15.40720102  5695"}}, "geometry": {"type": "Point", "coordinates": [-10.49963111396231, -41.70393755491876]}}, {"type": "Feature", "properties": {"norad_id": 66458, "name": "STARLINK-35684", "group": "last-30-days", "lat": -42.98208969041784, "lon": -27.143389995799264, "alt_km": 445.14992484867435, "timestamp": "2025-12-14T07:33:18.185569+00:00", "meta": {"OBJECT_NAME": "STARLINK-35684", "OBJECT_ID": "2025-262C", "EPOCH": "2025-12-13T13:16:24.255264", "MEAN_MOTION": 15.40740488, "ECCENTRICITY": 0.00028692, "INCLINATION": 43.0029, "RA_OF_ASC_NODE": 66.896, "ARG_OF_PERICENTER": 271.5768, "MEAN_ANOMALY": 88.476, "EPHEMERIS_TYPE": 0, "CLASSIFICATION_TYPE": "U", "NORAD_CAT_ID": 66458, "ELEMENT_SET_NO": 999, "REV_AT_EPOCH": 568, "BSTAR": 0.0011065006, "MEAN_MOTION_DOT": 0.00046264, "MEAN_MOTION_DDOT": 0}, "tle": {"line1": "1 66458U 25262C   25347.55305851  .00046264  00000+0  11065-2 0  9995", "line2": "2 66458  43.0029  66.8960 0002869 271.5768  88.4760 15.40740488  5688"}}, "geometry": {"type": "Point", "coordinates": [-27.143389995799264, -42.98208969041784]}}, {"type": "Feature", "properties": {"norad_id": 66459, "name": "STARLINK-35449", "group": "last-30-days", "lat": -38.15420809406743, "lon": 4.98330487222318, "alt_km": 445.82003341263317, "timestamp": "2025-12-14T07:33:18.185585+00:00", "meta": {"OBJECT_NAME": "STARLINK-35449", "OBJECT_ID": "2025-262D", "EPOCH": "2025-12-13T14:43:18.694848", "MEAN_MOTION": 15.40713686, "ECCENTRICITY": 0.00016869, "INCLINATION": 43.0023, "RA_OF_ASC_NODE": 66.486, "ARG_OF_PERICENTER": 277.6533, "MEAN_ANOMALY": 82.4132, "EPHEMERIS_TYPE": 0, "CLASSIFICATION_TYPE": "U", "NORAD_CAT_ID": 66459, "ELEMENT_SET_NO": 999, "REV_AT_EPOCH": 569, "BSTAR": 0.0013253955, "MEAN_MOTION_DOT": 0.00055491, "MEAN_MOTION_DDOT": 0}, "tle": {"line1": "1 66459U 25262D   25347.61341082  .00055491  00000+0  13254-2 0  9993", "line2": "2 66459  43.0023  66.4860 0001686 277.6533  82.4132 15.40713686  5699"}}, "geometry": {"type": "Point", "coordinates": [4.98330487222318, -38.15420809406743]}}, {"type": "Feature", "properties": {"norad_id": 66460, "name": "STARLINK-35424", "group": "last-30-days", "lat": -32.71425297808962, "lon": 18.837837825897978, "alt_km": 445.7472860883281, "timestamp": "2025-12-14T07:33:18.185599+00:00", "meta": {"OBJECT_NAME": "STARLINK-35424", "OBJECT_ID": "2025-262E", "EPOCH": "2025-12-13T14:40:05.061216", "MEAN_MOTION": 15.40748545, "ECCENTRICITY": 0.00016396, "INCLINATION": 43.0002, "RA_OF_ASC_NODE": 66.4695, "ARG_OF_PERICENTER": 257.4361, "MEAN_ANOMALY": 102.6313, "EPHEMERIS_TYPE": 0, "CLASSIFICATION_TYPE": "U", "NORAD_CAT_ID": 66460, "ELEMENT_SET_NO": 999, "REV_AT_EPOCH": 569, "BSTAR": 0.0014074495, "MEAN_MOTION_DOT": 0.00059041, "MEAN_MOTION_DDOT": 0}, "tle": {"line1": "1 66460U 25262E   25347.61116969  .00059041  00000+0  14074-2 0  9995", "line2": "2 66460  43.0002  66.4695 0001639 257.4361 102.6313 15.40748545  5695"}}, "geometry": {"type": "Point", "coordinates": [18.837837825897978, -32.71425297808962]}}, {"type": "Feature", "properties": {"norad_id": 66461, "name": "STARLINK-35132", "group": "last-30-days", "lat": -26.004275134178442, "lon": 30.82521301433547, "alt_km": 444.2931530548958, "timestamp": "2025-12-14T07:33:18.185611+00:00", "meta": {"OBJECT_NAME": "STARLINK-35132", "OBJECT_ID": "2025-262F", "EPOCH": "2025-12-13T14:36:50.743296", "MEAN_MOTION": 15.4073966, "ECCENTRICITY": 0.0003855, "INCLINATION": 43.008, "RA_OF_ASC_NODE": 66.4512, "ARG_OF_PERICENTER": 270.6345, "MEAN_ANOMALY": 89.407, "EPHEMERIS_TYPE": 0, "CLASSIFICATION_TYPE": "U", "NORAD_CAT_ID": 66461, "ELEMENT_SET_NO": 999, "REV_AT_EPOCH": 569, "BSTAR": 0.0011620266, "MEAN_MOTION_DOT": 0.00048619, "MEAN_MOTION_DDOT": 0}, "tle": {"line1": "1 66461U 25262F   25347.60892064  .00048619  00000+0  11620-2 0  9995", "line2": "2 66461  43.0080  66.4512 0003855 270.6345  89.4070 15.40739660  5691"}}, "geometry": {"type": "Point", "coordinates": [30.82521301433547, -26.004275134178442]}}, {"type": "Feature", "properties": {"norad_id": 66462, "name": "STARLINK-35499", "group": "last-30-days", "lat": -18.42242813444711, "lon": 41.41076511485068, "alt_km": 444.35566898853085, "timestamp": "2025-12-14T07:33:18.185622+00:00", "meta": {"OBJECT_NAME": "STARLINK-35499", "OBJECT_ID": "2025-262G", "EPOCH": "2025-12-13T13:00:16.774848", "MEAN_MOTION": 15.40716698, "ECCENTRICITY": 0.00026717, "INCLINATION": 43.0034, "RA_OF_ASC_NODE": 66.8072, "ARG_OF_PERICENTER": 275.5949, "MEAN_ANOMALY": 84.4603, "EPHEMERIS_TYPE": 0, "CLASSIFICATION_TYPE": "U", "NORAD_CAT_ID": 66462, "ELEMENT_SET_NO": 999, "REV_AT_EPOCH": 568, "BSTAR": 0.0017330173, "MEAN_MOTION_DOT": 0.00072827, "MEAN_MOTION_DDOT": 0}, "tle": {"line1": "1 66462U 25262G   25347.54186082  .00072827  00000+0  17330-2 0  9997", "line2": "2 66462  43.0034  66.8072 0002671 275.5949  84.4603 15.40716698  5687"}}, "geometry": {"type": "Point", "coordinates": [41.41076511485068, -18.42242813444711]}}, {"type": "Feature", "properties": {"norad_id": 66463, "name": "STARLINK-35463", "group": "last-30-days", "lat": -2.066111718064867, "lon": 60.07612213158595, "alt_km": 444.13118641535493, "timestamp": "2025-12-14T07:33:18.185633+00:00", "meta": {"OBJECT_NAME": "STARLINK-35463", "OBJECT_ID": "2025-262H", "EPOCH": "2025-12-13T14:00:03.000384", "MEAN_MOTION": 15.40596153, "ECCENTRICITY": 0.00016228, "INCLINATION": 43.0008, "RA_OF_ASC_NODE": 66.5103, "ARG_OF_PERICENTER": 260.189, "MEAN_ANOMALY": 355.3001, "EPHEMERIS_TYPE": 0, "CLASSIFICATION_TYPE": "U", "NORAD_CAT_ID": 66463, "ELEMENT_SET_NO": 999, "REV_AT_EPOCH": 577, "BSTAR": 0.0016521703, "MEAN_MOTION_DOT": 0.000691, "MEAN_MOTION_DDOT": 0}, "tle": {"line1": "1 66463U 25262H   25347.58336806  .00069100  00000+0  16522-2 0  9995", "line2": "2 66463  43.0008  66.5103 0001622 260.1890 355.3001 15.40596153  5775"}}, "geometry": {"type": "Point", "coordinates": [60.07612213158595, -2.066111718064867]}}]}